#cP2018  5  6  0  0  0.00000000     289 d+D   IGS14 FIT AIUB
## 2000      0.00000000   300.00000000 58244 0.0000000000000
+   81   G01G02G03G04G05G06G07G08G09G10G11G12G13G14G15G16G17
+        G18G19G20G21G22G23G24G25G26G27G28G29G30G31G32R01R02
+        R03R04R07R08R09R10R11R13R14R15R16R17R18R19R20R21R22
+        R23R24E01E02E03E04E05E07E08E09E11E12E14E18E19E21E24
+        E26E30C06C07C08C09C10C11C12C13C14J01J02  0  0  0  0
++         5  5  5  5  5  5  5  5  5  5  5  5  5  5  5  5  5
++         5  5  5  5  5  5  5  5  5  5  5  5  5  5  5  5  5
++         5  5  5  5  5  5  5  5  5  5  5  5  5  5  5  5  5
++         5  5  5  5  5  5  5  5  5  5  5  5  6  5  5 10  5
++         5  5  5  5  5  5  5  5  5  5  5  5  5  0  0  0  0
%c M  cc GPS ccc cccc cccc cccc cccc ccccc ccccc ccccc ccccc
%c cc cc ccc ccc cccc cccc cccc cccc ccccc ccccc ccccc ccccc
%f  1.2500000  1.025000000  0.00000000000  0.000000000000000
%f  0.0000000  0.000000000  0.00000000000  0.000000000000000
%i    0    0    0    0      0      0      0      0         0
%i    0    0    0    0      0      0      0      0         0
/* CODE MGEX orbits and clocks                              
/* of DOY 18126                                             
/*                                                          
/* PCV:IGS14      OL/AL:FES2004  NONE     YN ORB:CoN CLK:CoN
*  2018  5  6  7 40  0.00000000
PG01 -13625.553336  20642.628144   9113.571197    -45.728572
PG02  15403.432378    732.373865 -21047.005891    123.712017
PG03 -19296.279382  13003.312839 -12772.903329     64.915853
PG04 -16859.198042  -9684.149645 -18476.772385     58.095177
PG05  25964.253924  -1365.361452  -6048.840844     -8.476196
PG06   9124.575903  15264.999673 -19683.777505    405.108040
PG07  -4425.205051  25262.676090   6118.386445    196.319686
PG08 -15434.597611   4617.150966  21190.860757   -100.288937
PG09   2964.917924  20671.590153 -16434.398060    513.164676
PG10 -11636.499596 -12280.607569  20555.695467    183.350786
PG11 -10380.747368  18559.574953  15445.745244   -736.716746
PG12  21874.220374 -10311.947686 -10940.023749    335.412973
PG13  18769.111937   5638.533063  17814.033836    -94.674729
PG14 -18992.776317 -17304.410169  -6793.523147    -96.698837
PG15  15224.189493  -6703.312032  20556.608058   -354.602369
PG16 -26023.782589  -1165.303498  -6383.373575     25.660274
PG17  15396.604465  21647.241488   2194.871294   -100.616028
PG18 -15706.902092  14030.250157  15616.089445      5.584110
PG19  18230.626578  18300.249207  -6032.591490   -438.469801
PG20   8956.349089 -17084.938393  18113.088701    507.506273
PG21    -72.615108 -25098.150582   9502.556567   -398.630538
PG22 -24320.993273   9694.880317  -4207.092364   -382.087784
PG23  -9676.654163  12196.215039 -21206.742202   -217.362085
PG24  14548.299229 -18306.890006  12204.040570    -49.378992
PG25   9256.467071 -15433.924520 -19631.915998   -580.707406
PG26 -20777.062240  -6487.097683 -15322.910720   -158.706041
PG27 -20650.819106  -8488.162335  14509.106114    369.576455
PG28   7267.745600  13877.352763  22064.582426    712.728018
PG29    605.819173 -19139.643733 -18433.776405    454.686520
PG30   2223.937635  22286.496649  14158.070327     77.206811
PG31 -10045.379247 -13592.088226 -20344.277554    123.604446
PG32 -16088.516143 -20996.920272   2897.058825   -512.970237
PR01   8663.831323  12321.862668 -20582.699531     25.836779
PR02  23456.290275   8510.807200  -5130.977588    308.357044
PR03  22388.411243   -335.376106  12225.170099    131.414892
PR04   7797.347034  -9114.001188  22531.060647    259.874271
PR07 -22248.733562    465.678667 -12459.803688    -36.885033
PR08  -8504.426530   8820.259419 -22316.469193     23.282620
PR09 -12915.933294  -2011.883740 -21883.063002     29.688310
PR10 -19432.492360  12300.385534 -10972.337670     23.883964
PR11 -14708.878373  19588.793948   7042.724229    -28.129429
PR13  12955.702466   1333.296227  21910.124291    -10.135366
PR14  19480.370044 -12214.521725  11064.382596     26.979956
PR15  16747.444900 -18899.506519  -3209.952883     -9.772792
PR16   1676.319506 -15613.351940 -20091.549071     91.875480
PR17  10429.872081  -2390.057468 -23146.191073    130.250053
PR18   2992.356406 -18655.241777 -17160.105631    194.533774
PR19  -5658.866098 -24836.186873  -1420.797150    -51.764691
PR20 -11602.576933 -15893.700899  16272.153722   -336.939618
PR21 -10248.891192   2767.362839  23194.972609     17.692255
PR22  -2040.257685  19844.733422  15815.132238    -40.646197
PR23   7733.315696  24184.200909  -2403.493714    151.953871
PR24  12005.978997  14853.341717 -16920.275295   -165.912404
PE01 -15172.610675  21683.168211  13249.387652   -338.124980
PE02  15141.047582 -21689.673444 -13284.795351     12.721552
PE03   5651.706247 -16252.127404  24092.823422    -28.922684
PE04  15270.205673  19519.105098 -16172.123027    -28.589660
PE05  23317.964313  -3447.403643  17909.888532    270.899629
PE07 -27301.931105 -11361.447355  -1241.774526     37.955764
PE08 -15464.739984 -19293.845061  16275.970560   6590.389010
PE09  27413.479274  11113.736316   1234.951251   6800.055930
PE11  16160.490857  11418.868762 -22006.678016   1828.601710
PE12   8052.870266  27499.326168  -7365.394602   4094.593640
PE14 -16808.502205   1379.391910  17157.930797   6587.613080
PE18  17455.273707 -10882.160107 -24840.537290   6229.434030
PE19  -7537.964031  15262.325047 -24206.673781     22.035365
PE21 -25532.196093  13648.660246  -6161.179518   -316.882539
PE24  20970.166307   1705.355342  20799.491030   6721.694350
PE26 -14806.278584  10506.071743  23382.606523   5969.820530
PE30  -4158.963142 -16550.344084 -24198.665080   5863.376260
PC06 -11147.826008  21928.917885 -33959.978112     11.531798
PC07 -24094.556558  29947.752359  16899.973456    160.894981
PC08 -11444.712449  36531.944304  17992.927141    323.908785
PC09   5664.508600  29181.236998 -29593.208470   -155.494302
PC10  -9948.518512  30620.262984  27155.276663   -210.767549
PC11 -13289.212776   7961.478017  23267.576130   -496.587228
PC12 -18543.658781 -12612.162390  16607.247643    434.564215
PC13  -2681.368848  41995.948088   4203.981485   -319.175995
PC14 -24988.263975   6154.383997 -10796.636467    276.377877
PJ01 -33574.931234  18000.771302 -13376.331184   -273.833590
PJ02 -26358.731459  32378.388368  -2190.971748    -23.260493
EOF
